OBJECT_NAME,OBJECT_ID,EPOCH,MEAN_MOTION,ECCENTRICITY,INCLINATION,RA_OF_ASC_NODE,ARG_OF_PERICENTER,MEAN_ANOMALY,EPHEMERIS_TYPE,CLASSIFICATION_TYPE,NORAD_CAT_ID,ELEMENT_SET_NO,REV_AT_EPOCH,BSTAR,MEAN_MOTION_DOT,MEAN_MOTION_DDOT
COSMOS 2058,1990-010A,2026-07-16T12:24:48.491424,15.12160898,.0008023,82.4673,280.4281,244.3415,115.6987,0,U,20465,999,96170,.99971271E-4,.1754E-4,0
SL-14 R/B,1990-010B,2026-07-16T08:53:35.460384,14.83663431,.00184448,82.5036,146.5389,233.1287,126.8238,0,U,20466,999,94756,.17980136E-4,.173E-5,0
SL-14 R/B,1990-018B,2026-07-16T05:48:49.030560,14.82234437,.00169518,82.5216,102.9517,33.5727,326.6558,0,U,20511,999,94162,.22411621E-4,.203E-5,0
HST,1990-037B,2026-07-16T09:54:35.080128,15.31067854,.00022055,28.4721,240.7781,116.1577,243.9246,0,U,20580,999,79305,.94703474E-4,.3155E-4,0
SL-16 R/B,1990-046B,2026-07-15T22:21:28.988928,14.15025153,.0012387,70.9987,28.5771,113.0227,247.2203,0,U,20625,999,86653,.16082E-3,.264E-5,0
COSMOS 2084,1990-055A,2026-07-16T14:32:05.278560,15.06226547,.00082646,62.7881,255.6726,319.5810,40.4676,0,U,20663,999,95573,.64585712E-4,.748E-5,0
SL-6 R/B(2),1990-055D,2026-07-16T08:51:49.405248,15.04090480,.00453311,62.7805,176.0648,9.1524,351.0391,0,U,20666,999,95754,.81389555E-4,.947E-5,0
SL-8 R/B,1990-078B,2026-07-16T08:20:50.612928,14.93596397,.03432832,82.9039,135.2676,299.6182,57.1246,0,U,20775,999,82847,.22991402E-3,.8114E-4,0
SL-8 R/B,1991-006B,2026-07-16T04:50:33.644256,13.77509371,.00233789,82.9407,74.4470,37.8456,80.1161,0,U,21088,999,78176,.7435407E-4,.89E-6,0
OKEAN-3,1991-039A,2026-07-16T14:02:06.667296,15.05439255,.00125163,82.5144,211.8704,249.4103,110.5781,0,U,21397,999,88442,.12227853E-3,.1785E-4,0
COSMOS 2151,1991-042A,2026-07-16T14:27:01.541952,15.00515247,.00118204,82.4982,319.2932,350.6936,9.4067,0,U,21422,999,88252,.63643527E-4,.83E-5,0
SL-14 R/B,1991-042B,2026-07-16T14:13:18.308064,14.81918511,.00171056,82.4932,99.3212,172.3375,187.8104,0,U,21423,999,87216,.1993651E-4,.182E-5,0
ERS-1,1991-050A,2026-07-16T11:55:31.054080,14.39533841,.00319627,98.7796,218.9106,177.9082,182.2244,0,U,21574,999,83426,.68913963E-4,.17E-5,0
ARIANE 40 R/B,1991-050F,2026-07-16T14:07:54.317568,14.42972325,.00041015,98.1862,244.8581,58.4275,301.7316,0,U,21610,999,83758,.45351029E-4,.11E-5,0
INTERCOSMOS 25,1991-086A,2026-07-16T07:57:06.600960,12.12240580,.14846358,82.6006,232.1735,199.4731,154.3329,0,U,21819,999,51227,.6692421E-5,.49E-6,0
SL-8 R/B,1992-008B,2026-07-16T10:35:16.199808,13.75984009,.00357399,82.9273,172.0371,133.2229,340.3219,0,U,21876,999,72712,.80723118E-4,.94E-6,0
SL-8 R/B,1992-020B,2026-07-16T09:22:42.083040,13.75550148,.00279049,82.9280,58.1620,300.0206,233.9538,0,U,21938,999,71882,-.8446147E-5,.7E-7,0
USA 81,1992-023A,2026-07-16T13:04:08.359680,14.32405160,.00019265,85.0049,57.0594,65.4827,294.6566,0,U,21949,999,11323,.29075247E-4,.99E-6,0
COSMOS 2219,1992-076A,2026-07-16T04:37:43.159296,14.14108359,.00183294,71.0611,109.4381,355.9542,4.1430,0,U,22219,999,73654,-.93797825E-4,-.226E-5,0
SL-16 R/B,1992-076B,2026-07-16T11:22:22.274688,14.16877803,.00150372,71.0004,277.0880,260.5824,181.9813,0,U,22220,999,74007,.60120714E-4,.73E-6,0
COSMOS 2221,1992-080A,2026-07-16T10:10:55.110144,14.96605760,.00157902,82.5046,155.7529,116.4918,243.7925,0,U,22236,999,80004,.69119624E-4,.816E-5,0
SL-16 R/B,1992-093B,2026-07-16T10:17:36.756096,14.15465332,.00022215,71.0216,94.0056,131.2263,228.9052,0,U,22285,999,73137,-.10495903E-3,-.253E-5,0
COSMOS 2228,1992-094A,2026-07-16T13:15:35.976672,14.97677814,.00164066,82.5188,113.9154,224.2766,135.7145,0,U,22286,999,79534,.65578509E-4,.796E-5,0
SL-16 R/B,1993-016B,2026-07-16T13:16:56.071200,14.15313346,.00087846,71.0086,304.5280,135.5438,224.6391,0,U,22566,999,72040,.1553713E-3,.255E-5,0
COSMOS 2242,1993-024A,2026-07-16T07:47:52.464192,14.96986583,.00147316,82.5199,143.6660,228.4540,131.5420,0,U,22626,999,79963,.72500628E-4,.862E-5,0
SL-16 R/B,1993-059B,2026-07-16T03:29:30.684192,14.17249367,.00166997,70.9901,100.2368,7.1032,353.0325,0,U,22803,999,69773,-.1259354E-4,-.74E-6,0
ARIANE 40 R/B,1993-061H,2026-07-16T04:24:56.024928,14.32918759,.0009506,98.4806,263.4367,262.4796,97.5308,0,U,22830,999,71250,.40771348E-4,.68E-6,0
COSMOS 2278,1994-023A,2026-07-16T10:55:48.789984,14.14393425,.00095688,71.0521,265.6895,203.6949,156.3734,0,U,23087,999,66301,.52409415E-4,.53E-6,0
SL-16 R/B,1994-023B,2026-07-16T14:03:06.906240,14.15025044,.00013775,70.9985,160.1918,122.6480,237.4775,0,U,23088,999,66432,.11766642E-3,.18E-5,0
SL-16 R/B,1994-074B,2026-07-16T02:15:51.649920,14.79524746,.00072355,97.6986,222.6096,151.6316,274.3259,0,U,23343,999,70623,.31245533E-4,.185E-5,0
