COSMOS 2058             
1 20465U 90010A   26197.51722791  .00001754  00000+0  99971-4 0  9991
2 20465  82.4673 280.4281 0008023 244.3415 115.6987 15.12160898961701
SL-14 R/B               
1 20466U 90010B   26197.37054931  .00000173  00000+0  17980-4 0  9994
2 20466  82.5036 146.5389 0018444 233.1287 126.8238 14.83663431947567
SL-14 R/B               
1 20511U 90018B   26197.24223415  .00000203  00000+0  22412-4 0  9994
2 20511  82.5216 102.9517 0016951  33.5727 326.6558 14.82234437941624
HST                     
1 20580U 90037B   26197.41290602  .00003155  00000+0  94703-4 0  9993
2 20580  28.4721 240.7781 0002205 116.1577 243.9246 15.31067854793051
SL-16 R/B               
1 20625U 90046B   26196.93158552  .00000264  00000+0  16082-3 0  9997
2 20625  70.9987  28.5771 0012387 113.0227 247.2203 14.15025153866539
COSMOS 2084             
1 20663U 90055A   26197.60561665  .00000748  00000+0  64586-4 0  9997
2 20663  62.7881 255.6726 0008264 319.5810  40.4676 15.06226547955735
SL-6 R/B(2)             
1 20666U 90055D   26197.36932182  .00000947  00000+0  81390-4 0  9992
2 20666  62.7805 176.0648 0045331   9.1524 351.0391 15.04090480957542
SL-8 R/B                
1 20775U 90078B   26197.34780802  .00008114  00000+0  22991-3 0  9991
2 20775  82.9039 135.2676 0343283 299.6182  57.1246 14.93596397828474
SL-8 R/B                
1 21088U 91006B   26197.20177829  .00000089  00000+0  74354-4 0  9999
2 21088  82.9407  74.4470 0023378  37.8456  80.1161 13.77509371781762
OKEAN-3                 
1 21397U 91039A   26197.58479939  .00001785  00000+0  12228-3 0  9991
2 21397  82.5144 211.8704 0012516 249.4103 110.5781 15.05439255884427
COSMOS 2151             
1 21422U 91042A   26197.60210118  .00000830  00000+0  63644-4 0  9998
2 21422  82.4982 319.2932 0011820 350.6936   9.4067 15.00515247882520
SL-14 R/B               
1 21423U 91042B   26197.59257301  .00000182  00000+0  19937-4 0  9998
2 21423  82.4932  99.3212 0017105 172.3375 187.8104 14.81918511872162
ERS-1                   
1 21574U 91050A   26197.49688720  .00000170  00000+0  68914-4 0  9992
2 21574  98.7796 218.9106 0031962 177.9082 182.2244 14.39533841834266
ARIANE 40 R/B           
1 21610U 91050F   26197.58882312  .00000110  00000+0  45351-4 0  9990
2 21610  98.1862 244.8581 0004101  58.4275 301.7316 14.42972325837586
INTERCOSMOS 25          
1 21819U 91086A   26197.33132640  .00000049  00000+0  66924-5 0  9996
2 21819  82.6006 232.1735 1484635 199.4731 154.3329 12.12240580512272
SL-8 R/B                
1 21876U 92008B   26197.44115972  .00000094  00000+0  80723-4 0  9997
2 21876  82.9273 172.0371 0035739 133.2229 340.3219 13.75984009727124
SL-8 R/B                
1 21938U 92020B   26197.39076485  .00000007  00000+0 -84461-5 0  9998
2 21938  82.9280  58.1620 0027904 300.0206 233.9538 13.75550148718827
USA 81                  
1 21949U 92023A   26197.54454120  .00000099  00000+0  29075-4 0  9995
2 21949  85.0049  57.0594 0001926  65.4827 294.6566 14.32405160113237
COSMOS 2219             
1 22219U 92076A   26197.19286064 -.00000226  00000+0 -93798-4 0  9992
2 22219  71.0611 109.4381 0018329 355.9542   4.1430 14.14108359736549
SL-16 R/B               
1 22220U 92076B   26197.47386892  .00000073  00000+0  60121-4 0  9997
2 22220  71.0004 277.0880 0015037 260.5824 181.9813 14.16877803740071
COSMOS 2221             
1 22236U 92080A   26197.42424896  .00000816  00000+0  69120-4 0  9994
2 22236  82.5046 155.7529 0015790 116.4918 243.7925 14.96605760800046
SL-16 R/B               
1 22285U 92093B   26197.42889764 -.00000253  00000+0 -10496-3 0  9999
2 22285  71.0216  94.0056 0002221 131.2263 228.9052 14.15465332731370
COSMOS 2228             
1 22286U 92094A   26197.55249973  .00000796  00000+0  65579-4 0  9990
2 22286  82.5188 113.9154 0016406 224.2766 135.7145 14.97677814795342
SL-16 R/B               
1 22566U 93016B   26197.55342675  .00000255  00000+0  15537-3 0  9997
2 22566  71.0086 304.5280 0008784 135.5438 224.6391 14.15313346720404
COSMOS 2242             
1 22626U 93024A   26197.32491278  .00000862  00000+0  72501-4 0  9991
2 22626  82.5199 143.6660 0014731 228.4540 131.5420 14.96986583799630
SL-16 R/B               
1 22803U 93059B   26197.14549403 -.00000074  00000+0 -12594-4 0  9993
2 22803  70.9901 100.2368 0016699   7.1032 353.0325 14.17249367697734
ARIANE 40 R/B           
1 22830U 93061H   26197.18398177  .00000068  00000+0  40771-4 0  9999
2 22830  98.4806 263.4367 0009506 262.4796  97.5308 14.32918759712505
COSMOS 2278             
1 23087U 94023A   26197.45542581  .00000053  00000+0  52409-4 0  9998
2 23087  71.0521 265.6895 0009568 203.6949 156.3734 14.14393425663011
SL-16 R/B               
1 23088U 94023B   26197.58549660  .00000180  00000+0  11767-3 0  9990
2 23088  70.9985 160.1918 0001377 122.6480 237.4775 14.15025044664320
SL-16 R/B               
1 23343U 94074B   26197.09434780  .00000185  00000+0  31246-4 0  9992
2 23343  97.6986 222.6096 0007235 151.6316 274.3259 14.79524746706238
